NORAD_CAT_ID,OBJECT_NAME,OBJECT_TYPE,EPOCH,MEAN_MOTION,ECCENTRICITY,INCLINATION,RA_OF_ASC_NODE,ARG_OF_PERICENTER,MEAN_ANOMALY,BSTAR,MEAN_MOTION_DOT,MEAN_MOTION_DDOT,TLE_LINE0,TLE_LINE1,TLE_LINE2,SEMIMAJOR_AXIS,PERIOD,APOGEE,PERIGEE,DECAYED
51884.0,STARLINK-3577,PAYLOAD,2023-10-29 04:46:36,15.08852362,0.0001523,53.2176,270.9894,101.0338,259.0825,0.00033173,4.997e-05,0.0,0 STARLINK-3577,1 51884U 22022AJ  23302.19903134  .00004997  00000-0  33173-3 0  9993,2 51884  53.2176 270.9894 0001523 101.0338 259.0825 15.08852362 93124,6917.843,95.437,540.761,538.654,0.0
51884.0,STARLINK-3577,PAYLOAD,2023-10-29 22:15:51,15.08840226,0.0001532,53.2178,267.7182,100.4311,259.6854,0.00019139,2.759e-05,0.0,0 STARLINK-3577,1 51884U 22022AJ  23302.92767711  .00002759  00000-0  19139-3 0  9993,2 51884  53.2178 267.7182 0001532 100.4311 259.6854 15.08840226 93230,6917.88,95.438,540.805,538.685,0.0
51884.0,STARLINK-3577,PAYLOAD,2023-10-30 04:37:23,15.08840418,0.0001511,53.2174,266.5289,99.2609,260.8554,0.00014835,2.074e-05,0.0,0 STARLINK-3577,1 51884U 22022AJ  23303.19263703  .00002074  00000-0  14835-3 0  9993,2 51884  53.2174 266.5289 0001511  99.2609 260.8554 15.08840418 93271,6917.879,95.438,540.789,538.699,0.0
51884.0,STARLINK-3577,PAYLOAD,2023-10-30 22:06:38,15.08841882,0.0001763,53.2188,263.2589,80.7006,279.4185,0.00011148,1.487e-05,0.0,0 STARLINK-3577,1 51884U 22022AJ  23303.92127855  .00001487  00000-0  11148-3 0  9992,2 51884  53.2188 263.2589 0001763  80.7006 279.4185 15.08841882 93382,6917.875,95.437,540.959,538.52,0.0
51884.0,STARLINK-3577,PAYLOAD,2023-10-31 14:00:30,15.08840202,0.0001565,53.2183,260.2898,92.2447,267.8724,5.275e-05,5.52e-06,0.0,0 STARLINK-3577,1 51884U 22022AJ  23304.58368091  .00000552  00000-0  52750-4 0  9991,2 51884  53.2183 260.2898 0001565  92.2447 267.8724 15.08840202 93480,6917.88,95.438,540.827,538.662,0.0
51884.0,STARLINK-3577,PAYLOAD,2023-10-31 20:22:02,15.08839344,0.000148,53.2174,259.0988,91.0084,269.1078,0.00012916,1.768e-05,0.0,0 STARLINK-3577,1 51884U 22022AJ  23304.84864088  .00001768  00000-0  12916-3 0  9996,2 51884  53.2174 259.0988 0001480  91.0084 269.1078 15.08839344 93523,6917.882,95.438,540.771,538.724,0.0
51884.0,STARLINK-3577,PAYLOAD,2023-11-01 13:51:16,15.08848026,0.0001211,53.2168,255.8263,82.3937,277.7192,0.00013967,1.936e-05,0.0,0 STARLINK-3577,1 51884U 22022AJ  23305.57727460  .00001936  00000-0  13967-3 0  9993,2 51884  53.2168 255.8263 0001211  82.3937 277.7192 15.08848026 93639,6917.856,95.437,540.559,538.883,0.0
51884.0,STARLINK-3577,PAYLOAD,2023-11-02 04:09:45,15.08843358,0.0001415,53.2174,253.1506,80.4654,279.6498,6.9486e-05,8.18e-06,0.0,0 STARLINK-3577,1 51884U 22022AJ  23306.17344077  .00000818  00000-0  69486-4 0  9995,2 51884  53.2174 253.1506 0001415  80.4654 279.6498 15.08843358 93721,6917.87,95.437,540.714,538.756,0.0
51884.0,STARLINK-3577,PAYLOAD,2023-11-02 20:03:36,15.08838243,0.0001496,53.2173,250.1778,81.9371,278.1791,6.1388e-05,6.89e-06,0.0,0 STARLINK-3577,1 51884U 22022AJ  23306.83584481  .00000689  00000-0  61388-4 0  9992,2 51884  53.2173 250.1778 0001496  81.9371 278.1791 15.08838243 93827,6917.886,95.438,540.786,538.716,0.0
51884.0,STARLINK-3577,PAYLOAD,2023-11-03 04:00:31,15.08849401,0.0001446,53.2182,248.6905,96.4141,263.7016,0.00012518,1.705e-05,0.0,0 STARLINK-3577,1 51884U 22022AJ  23307.16703561  .00001705  00000-0  12518-3 0  9991,2 51884  53.2182 248.6905 0001446  96.4141 263.7016 15.08849401 93875,6917.852,95.437,540.717,538.716,0.0
51884.0,STARLINK-3577,PAYLOAD,2023-11-03 13:32:51,15.08836059,0.0001741,53.2167,246.9064,83.4362,276.6829,-4.4403e-05,-9.95e-06,0.0,0 STARLINK-3577,1 51884U 22022AJ  23307.56448424 -.00000995  00000-0 -44403-4 0  9990,2 51884  53.2167 246.9064 0001741  83.4362 276.6829 15.08836059 93931,6917.892,95.438,540.962,538.553,0.0
51884.0,STARLINK-3577,PAYLOAD,2023-11-03 19:54:24,15.08833071,0.0001591,53.2169,245.7177,83.2171,276.9002,0.00010567,1.394e-05,0.0,0 STARLINK-3577,1 51884U 22022AJ  23307.82944862  .00001394  00000-0  10567-3 0  9991,2 51884  53.2169 245.7177 0001591  83.2171 276.9002 15.08833071 93975,6917.902,95.438,540.867,538.666,0.0
51884.0,STARLINK-3577,PAYLOAD,2023-11-04 05:26:42,15.08847307,0.0001595,53.2172,243.9306,92.0019,268.1156,0.00015451,2.172e-05,0.0,0 STARLINK-3577,1 51884U 22022AJ  23308.22687936  .00002172  00000-0  15451-3 0  9994,2 51884  53.2172 243.9306 0001595  92.0019 268.1156 15.08847307 94034,6917.858,95.437,540.826,538.62,0.0
51884.0,STARLINK-3577,PAYLOAD,2023-11-04 13:23:38,15.08833145,0.000178,53.2175,242.4468,85.4887,274.6308,3.1131e-05,2.07e-06,0.0,0 STARLINK-3577,1 51884U 22022AJ  23308.55808911  .00000207  00000-0  31131-4 0  9999,2 51884  53.2175 242.4468 0001780  85.4887 274.6308 15.08833145 94086,6917.901,95.438,540.998,538.535,0.0
51884.0,STARLINK-3577,PAYLOAD,2023-11-04 22:55:57,15.08840303,0.0001267,53.2179,240.6597,94.5313,265.5824,-7.2194e-06,-4.03e-06,0.0,0 STARLINK-3577,1 51884U 22022AJ  23308.95552469 -.00000403  00000-0 -72194-5 0  9992,2 51884  53.2179 240.6597 0001267  94.5313 265.5824 15.08840303 94141,6917.879,95.438,540.621,538.868,0.0
51884.0,STARLINK-3577,PAYLOAD,2023-11-05 02:06:43,15.08847978,0.0001527,53.2173,240.0642,97.386,262.7305,0.00011992,1.621e-05,0.0,0 STARLINK-3577,1 51884U 22022AJ  23309.08800155  .00001621  00000-0  11992-3 0  9993,2 51884  53.2173 240.0642 0001527  97.3860 262.7305 15.08847978 94167,6917.856,95.437,540.777,538.665,0.0
51884.0,STARLINK-3577,PAYLOAD,2023-11-05 22:46:43,15.08866743,0.0001607,53.2172,236.1986,92.3958,267.7218,0.00063218,9.795e-05,0.0,0 STARLINK-3577,1 51884U 22022AJ  23309.94911318  .00009795  00000-0  63218-3 0  9990,2 51884  53.2172 236.1986 0001607  92.3958 267.7218 15.08866743 94298,6917.799,95.436,540.775,538.552,0.0
51884.0,STARLINK-3577,PAYLOAD,2023-11-06 01:57:29,15.08900007,0.0001539,53.2163,235.604,96.241,263.8757,0.0016707,0.00026445,0.0,0 STARLINK-3577,1 51884U 22022AJ  23310.08158809  .00026445  00000-0  16707-2 0  9996,2 51884  53.2163 235.6040 0001539  96.2410 263.8757 15.08900007 94313,6917.697,95.434,540.627,538.497,0.0
51884.0,STARLINK-3577,PAYLOAD,2023-11-06 22:37:31,15.08817169,0.000201,53.2175,231.7386,126.6544,233.4633,-0.00045926,-7.585e-05,0.0,0 STARLINK-3577,1 51884U 22022AJ  23310.94272960 -.00007585  00000-0 -45926-3 0  9998,2 51884  53.2175 231.7386 0002010 126.6544 233.4633 15.08817169 94443,6917.95,95.439,541.206,538.425,0.0
51884.0,STARLINK-3577,PAYLOAD,2023-11-07 01:48:18,15.08760893,0.0001371,53.2165,231.1452,87.5812,272.5337,-0.0017422,-0.00027848,0.0,0 STARLINK-3577,1 51884U 22022AJ  23311.07521874 -.00027848  00000-0 -17422-2 0  9997,2 51884  53.2165 231.1452 0001371  87.5812 272.5337 15.08760893 94460,6918.122,95.443,540.936,539.039,0.0
51884.0,STARLINK-3577,PAYLOAD,2023-11-07 04:59:05,15.08756902,0.0001386,53.2157,230.5495,87.9966,272.1185,-0.0011238,-0.00018088,0.0,0 STARLINK-3577,1 51884U 22022AJ  23311.20770825 -.00018088  00000-0 -11238-2 0  9999,2 51884  53.2157 230.5495 0001386  87.9966 272.1185 15.08756902 94486,6918.134,95.443,540.958,539.041,0.0
51884.0,STARLINK-3577,PAYLOAD,2023-11-08 01:39:06,15.08863123,0.0001457,53.2166,226.6848,104.8412,255.2742,0.0023012,0.00036549,0.0,0 STARLINK-3577,1 51884U 22022AJ  23312.06882565  .00036549  00000-0  23012-2 0  9992,2 51884  53.2166 226.6848 0001457 104.8412 255.2742 15.08863123 94618,6917.81,95.436,540.683,538.667,0.0
51884.0,STARLINK-3577,PAYLOAD,2023-11-08 22:19:06,15.08861964,0.0001631,53.2161,222.8202,115.3258,244.7903,0.00015513,2.183e-05,0.0,0 STARLINK-3577,1 51884U 22022AJ  23312.92993165  .00002183  00000-0  15513-3 0  9991,2 51884  53.2161 222.8202 0001631 115.3258 244.7903 15.08861964 94741,6917.813,95.436,540.807,538.55,0.0
51884.0,STARLINK-3577,PAYLOAD,2023-11-09 01:29:52,15.08866241,0.0001532,53.2169,222.2242,100.3431,259.7734,0.00021662,3.164e-05,0.0,0 STARLINK-3577,1 51884U 22022AJ  23313.06240942  .00003164  00000-0  21662-3 0  9997,2 51884  53.2169 222.2242 0001532 100.3431 259.7734 15.08866241 94767,6917.8,95.436,540.725,538.605,0.0
51884.0,STARLINK-3577,PAYLOAD,2023-11-09 22:09:52,15.08850707,0.0001463,53.2169,218.3687,110.4092,249.7057,-0.00013427,-2.425e-05,0.0,0 STARLINK-3577,1 51884U 22022AJ  23313.92352741 -.00002425  00000-0 -13427-3 0  9994,2 51884  53.2169 218.3687 0001463 110.4092 249.7057 15.08850707 94895,6917.848,95.437,540.725,538.701,0.0
51884.0,STARLINK-3577,PAYLOAD,2023-11-10 01:20:38,15.08847618,0.000168,53.2163,217.7727,120.6452,239.4706,6.5171e-06,-1.84e-06,0.0,0 STARLINK-3577,1 51884U 22022AJ  23314.05600667 -.00000184  00000-0  65171-5 0  9996,2 51884  53.2163 217.7727 0001680 120.6452 239.4706 15.08847618 94918,6917.857,95.437,540.884,538.56,0.0
51884.0,STARLINK-3577,PAYLOAD,2023-11-10 10:52:58,15.08842922,0.0001478,53.2165,215.9832,95.7993,264.3168,5.7781e-05,6.32e-06,0.0,0 STARLINK-3577,1 51884U 22022AJ  23314.45344946  .00000632  00000-0  57781-4 0  9999,2 51884  53.2165 215.9832 0001478  95.7993 264.3168 15.08842922 94972,6917.871,95.437,540.759,538.714,0.0
51884.0,STARLINK-3577,PAYLOAD,2023-11-11 10:43:45,15.08840109,0.0001503,53.2176,211.5195,93.4945,266.6219,7.5576e-05,9.15e-06,0.0,0 STARLINK-3577,1 51884U 22022AJ  23315.44705016  .00000915  00000-0  75576-4 0  9994,2 51884  53.2176 211.5195 0001503  93.4945 266.6219 15.08840109 95124,6917.88,95.438,540.785,538.705,0.0
51884.0,STARLINK-3577,PAYLOAD,2023-11-11 17:05:18,15.08839545,0.000153,53.2162,210.3331,84.0183,276.0983,9.3353e-05,1.198e-05,0.0,0 STARLINK-3577,1 51884U 22022AJ  23315.71201401  .00001198  00000-0  93353-4 0  9990,2 51884  53.2162 210.3331 0001530  84.0183 276.0983 15.08839545 95167,6917.882,95.438,540.805,538.688,0.0
51884.0,STARLINK-3577,PAYLOAD,2023-11-12 10:34:32,15.08840545,0.0001476,53.2171,207.0607,91.0666,269.0495,0.00011816,1.593e-05,0.0,0 STARLINK-3577,1 51884U 22022AJ  23316.44065432  .00001593  00000-0  11816-3 0  9995,2 51884  53.2171 207.0607 0001476  91.0666 269.0495 15.08840545 95273,6917.879,95.438,540.765,538.723,0.0
